{
  "norad_id": 57891,
  "name": "STARLINK-30465",
  "history": [
    {
      "epoch": "2026-03-28T14:39:17.290656",
      "apogee_km": 486.4716425067754,
      "perigee_km": 484.57452685936914,
      "latitude_deg": 36.4669717523079,
      "longitude_deg": 27.719211840303615,
      "semi_major_axis_km": 6863.660084683072,
      "eccentricity": 0.0001382,
      "inclination_deg": 42.9981,
      "raan_deg": 207.0325,
      "arg_perigee_deg": 262.0592,
      "mean_anomaly_deg": 98.0102,
      "mean_motion_rev_day": 15.26754156
    }
  ]
}